{"type": "FeatureCollection", "features": [{"type": "Feature", "properties": {"norad_id": 37846, "name": "GSAT0101 (GALILEO-PFM)", "group": "galileo", "lat": -56.77605412480867, "lon": -95.07594848195578, "alt_km": 23221.216141097426, "timestamp": "2025-12-10T09:57:44.962075+00:00", "meta": {"OBJECT_NAME": "GSAT0101 (GALILEO-PFM)", "OBJECT_ID": "2011-060A", "EPOCH": "2025-12-08T19:04:30.018432", "MEAN_MOTION": 1.70475601, "ECCENTRICITY": 0.00029509, "INCLINATION": 57.0536, "RA_OF_ASC_NODE": 346.9268, "ARG_OF_PERICENTER": 313.0699, "MEAN_ANOMALY": 46.9223, "EPHEMERIS_TYPE": 0, "CLASSIFICATION_TYPE": "U", "NORAD_CAT_ID": 37846, "ELEMENT_SET_NO": 999, "REV_AT_EPOCH": 8787, "BSTAR": 0, "MEAN_MOTION_DOT": -8.7e-07, "MEAN_MOTION_DDOT": 0}, "tle": {"line1": "1 37846U 11060A   25342.79479188 -.00000087  00000+0  00000+0 0  9999", "line2": "2 37846  57.0536 346.9268 0002950 313.0699  46.9223  1.70475601 87878"}}, "geometry": {"type": "Point", "coordinates": [-95.07594848195578, -56.77605412480867]}}, {"type": "Feature", "properties": {"norad_id": 37847, "name": "GSAT0102 (GALILEO-FM2)", "group": "galileo", "lat": -32.73065195048815, "lon": -37.753019798268795, "alt_km": 23211.83191162036, "timestamp": "2025-12-10T09:57:44.962097+00:00", "meta": {"OBJECT_NAME": "GSAT0102 (GALILEO-FM2)", "OBJECT_ID": "2011-060B", "EPOCH": "2025-12-09T14:02:59.398080", "MEAN_MOTION": 1.7047581, "ECCENTRICITY": 0.0004922, "INCLINATION": 57.0542, "RA_OF_ASC_NODE": 346.9059, "ARG_OF_PERICENTER": 308.4092, "MEAN_ANOMALY": 222.2657, "EPHEMERIS_TYPE": 0, "CLASSIFICATION_TYPE": "U", "NORAD_CAT_ID": 37847, "ELEMENT_SET_NO": 999, "REV_AT_EPOCH": 8789, "BSTAR": 0, "MEAN_MOTION_DOT": -8.7e-07, "MEAN_MOTION_DDOT": 0}, "tle": {"line1": "1 37847U 11060B   25343.58540970 -.00000087  00000+0  00000+0 0  9996", "line2": "2 37847  57.0542 346.9059 0004922 308.4092 222.2657  1.70475810 87894"}}, "geometry": {"type": "Point", "coordinates": [-37.753019798268795, -32.73065195048815]}}, {"type": "Feature", "properties": {"norad_id": 38857, "name": "GSAT0103 (GALILEO-FM3)", "group": "galileo", "lat": -50.82817632347091, "lon": -16.42819198257734, "alt_km": 23220.761485541076, "timestamp": "2025-12-10T09:57:44.962112+00:00", "meta": {"OBJECT_NAME": "GSAT0103 (GALILEO-FM3)", "OBJECT_ID": "2012-055A", "EPOCH": "2025-12-08T20:02:14.787168", "MEAN_MOTION": 1.70473288, "ECCENTRICITY": 0.000255, "INCLINATION": 55.6903, "RA_OF_ASC_NODE": 106.7738, "ARG_OF_PERICENTER": 268.6106, "MEAN_ANOMALY": 91.3235, "EPHEMERIS_TYPE": 0, "CLASSIFICATION_TYPE": "U", "NORAD_CAT_ID": 38857, "ELEMENT_SET_NO": 999, "REV_AT_EPOCH": 8176, "BSTAR": 0, "MEAN_MOTION_DOT": 1.1e-07, "MEAN_MOTION_DDOT": 0}, "tle": {"line1": "1 38857U 12055A   25342.83489337  .00000011  00000+0  00000+0 0  9995", "line2": "2 38857  55.6903 106.7738 0002550 268.6106  91.3235  1.70473288 81769"}}, "geometry": {"type": "Point", "coordinates": [-16.42819198257734, -50.82817632347091]}}, {"type": "Feature", "properties": {"norad_id": 40128, "name": "GSAT0201 (GALILEO 5)", "group": "galileo", "lat": 45.68763504546882, "lon": 38.6035741362904, "alt_km": 18957.677573865916, "timestamp": "2025-12-10T09:57:44.962124+00:00", "meta": {"OBJECT_NAME": "GSAT0201 (GALILEO 5)", "OBJECT_ID": "2014-050A", "EPOCH": "2025-12-07T12:54:32.900256", "MEAN_MOTION": 1.85519488, "ECCENTRICITY": 0.16474216, "INCLINATION": 49.0828, "RA_OF_ASC_NODE": 281.2757, "ARG_OF_PERICENTER": 172.085, "MEAN_ANOMALY": 190.9173, "EPHEMERIS_TYPE": 0, "CLASSIFICATION_TYPE": "U", "NORAD_CAT_ID": 40128, "ELEMENT_SET_NO": 999, "REV_AT_EPOCH": 7476, "BSTAR": 0, "MEAN_MOTION_DOT": -5.9e-07, "MEAN_MOTION_DDOT": 0}, "tle": {"line1": "1 40128U 14050A   25341.53788079 -.00000059  00000+0  00000+0 0  9990", "line2": "2 40128  49.0828 281.2757 1647421 172.0850 190.9173  1.85519488 74761"}}, "geometry": {"type": "Point", "coordinates": [38.6035741362904, 45.68763504546882]}}, {"type": "Feature", "properties": {"norad_id": 40129, "name": "GSAT0202 (GALILEO 6)", "group": "galileo", "lat": -26.647335319933365, "lon": -105.52298807860149, "alt_km": 25417.889901440256, "timestamp": "2025-12-10T09:57:44.962136+00:00", "meta": {"OBJECT_NAME": "GSAT0202 (GALILEO 6)", "OBJECT_ID": "2014-050B", "EPOCH": "2025-12-08T20:55:50.636640", "MEAN_MOTION": 1.85520286, "ECCENTRICITY": 0.16482545, "INCLINATION": 49.097, "RA_OF_ASC_NODE": 280.3049, "ARG_OF_PERICENTER": 172.8865, "MEAN_ANOMALY": 189.8198, "EPHEMERIS_TYPE": 0, "CLASSIFICATION_TYPE": "U", "NORAD_CAT_ID": 40129, "ELEMENT_SET_NO": 999, "REV_AT_EPOCH": 7695, "BSTAR": 0, "MEAN_MOTION_DOT": -6.8e-07, "MEAN_MOTION_DDOT": 0}, "tle": {"line1": "1 40129U 14050B   25342.87211385 -.00000068  00000+0  00000+0 0  9990", "line2": "2 40129  49.0970 280.3049 1648254 172.8865 189.8198  1.85520286 76958"}}, "geometry": {"type": "Point", "coordinates": [-105.52298807860149, -26.647335319933365]}}, {"type": "Feature", "properties": {"norad_id": 40544, "name": "GSAT0203 (GALILEO 7)", "group": "galileo", "lat": 40.29073021622385, "lon": 20.395036210217977, "alt_km": 23231.90450173729, "timestamp": "2025-12-10T09:57:44.962149+00:00", "meta": {"OBJECT_NAME": "GSAT0203 (GALILEO 7)", "OBJECT_ID": "2015-017A", "EPOCH": "2025-12-07T23:40:17.785344", "MEAN_MOTION": 1.70475803, "ECCENTRICITY": 0.00065197, "INCLINATION": 56.8473, "RA_OF_ASC_NODE": 346.8097, "ARG_OF_PERICENTER": 270.7442, "MEAN_ANOMALY": 89.1988, "EPHEMERIS_TYPE": 0, "CLASSIFICATION_TYPE": "U", "NORAD_CAT_ID": 40544, "ELEMENT_SET_NO": 999, "REV_AT_EPOCH": 6594, "BSTAR": 0, "MEAN_MOTION_DOT": -8.6e-07, "MEAN_MOTION_DDOT": 0}, "tle": {"line1": "1 40544U 15017A   25341.98631696 -.00000086  00000+0  00000+0 0  9997", "line2": "2 40544  56.8473 346.8097 0006519 270.7442  89.1988  1.70475803 65948"}}, "geometry": {"type": "Point", "coordinates": [20.395036210217977, 40.29073021622385]}}, {"type": "Feature", "properties": {"norad_id": 40545, "name": "GSAT0204 (GALILEO 8)", "group": "galileo", "lat": -53.488309929500105, "lon": -131.26258923103256, "alt_km": 23209.433601342876, "timestamp": "2025-12-10T09:57:44.962160+00:00", "meta": {"OBJECT_NAME": "GSAT0204 (GALILEO 8)", "OBJECT_ID": "2015-017B", "EPOCH": "2025-12-08T05:48:09.490464", "MEAN_MOTION": 1.70475483, "ECCENTRICITY": 0.00062708, "INCLINATION": 56.8542, "RA_OF_ASC_NODE": 346.8204, "ARG_OF_PERICENTER": 261.7403, "MEAN_ANOMALY": 98.2059, "EPHEMERIS_TYPE": 0, "CLASSIFICATION_TYPE": "U", "NORAD_CAT_ID": 40545, "ELEMENT_SET_NO": 999, "REV_AT_EPOCH": 2899, "BSTAR": 0, "MEAN_MOTION_DOT": -8.6e-07, "MEAN_MOTION_DDOT": 0}, "tle": {"line1": "1 40545U 15017B   25342.24177651 -.00000086  00000+0  00000+0 0  9994", "line2": "2 40545  56.8542 346.8204 0006270 261.7403  98.2059  1.70475483 28995"}}, "geometry": {"type": "Point", "coordinates": [-131.26258923103256, -53.488309929500105]}}, {"type": "Feature", "properties": {"norad_id": 40889, "name": "GSAT0205 (GALILEO 9)", "group": "galileo", "lat": 28.735657159138558, "lon": -110.6010488169035, "alt_km": 23201.241839863935, "timestamp": "2025-12-10T09:57:44.962172+00:00", "meta": {"OBJECT_NAME": "GSAT0205 (GALILEO 9)", "OBJECT_ID": "2015-045A", "EPOCH": "2025-12-06T20:05:28.161600", "MEAN_MOTION": 1.70472973, "ECCENTRICITY": 0.00059315, "INCLINATION": 55.0055, "RA_OF_ASC_NODE": 226.9215, "ARG_OF_PERICENTER": 39.3036, "MEAN_ANOMALY": 320.836, "EPHEMERIS_TYPE": 0, "CLASSIFICATION_TYPE": "U", "NORAD_CAT_ID": 40889, "ELEMENT_SET_NO": 999, "REV_AT_EPOCH": 6373, "BSTAR": 0, "MEAN_MOTION_DOT": 2.8e-07, "MEAN_MOTION_DDOT": 0}, "tle": {"line1": "1 40889U 15045A   25340.83713150  .00000028  00000+0  00000+0 0  9994", "line2": "2 40889  55.0055 226.9215 0005931  39.3036 320.8360  1.70472973 63731"}}, "geometry": {"type": "Point", "coordinates": [-110.6010488169035, 28.735657159138558]}}, {"type": "Feature", "properties": {"norad_id": 40890, "name": "GSAT0206 (GALILEO 10)", "group": "galileo", "lat": -53.90263724554439, "lon": 120.56431601318991, "alt_km": 23234.978656652227, "timestamp": "2025-12-10T09:57:44.962184+00:00", "meta": {"OBJECT_NAME": "GSAT0206 (GALILEO 10)", "OBJECT_ID": "2015-045B", "EPOCH": "2025-12-08T05:32:31.943328", "MEAN_MOTION": 1.70473105, "ECCENTRICITY": 0.0003529, "INCLINATION": 55.0039, "RA_OF_ASC_NODE": 226.878, "ARG_OF_PERICENTER": 31.5182, "MEAN_ANOMALY": 328.5941, "EPHEMERIS_TYPE": 0, "CLASSIFICATION_TYPE": "U", "NORAD_CAT_ID": 40890, "ELEMENT_SET_NO": 999, "REV_AT_EPOCH": 6378, "BSTAR": 0, "MEAN_MOTION_DOT": 1.8e-07, "MEAN_MOTION_DDOT": 0}, "tle": {"line1": "1 40890U 15045B   25342.23092527  .00000018  00000+0  00000+0 0  9999", "line2": "2 40890  55.0039 226.8780 0003529  31.5182 328.5941  1.70473105 63781"}}, "geometry": {"type": "Point", "coordinates": [120.56431601318991, -53.90263724554439]}}, {"type": "Feature", "properties": {"norad_id": 41174, "name": "GSAT0209 (GALILEO 12)", "group": "galileo", "lat": 18.56412198797753, "lon": -86.79869670776446, "alt_km": 23226.77585046211, "timestamp": "2025-12-10T09:57:44.962196+00:00", "meta": {"OBJECT_NAME": "GSAT0209 (GALILEO 12)", "OBJECT_ID": "2015-079A", "EPOCH": "2025-12-08T09:34:38.512704", "MEAN_MOTION": 1.70474355, "ECCENTRICITY": 0.00023972, "INCLINATION": 55.7104, "RA_OF_ASC_NODE": 106.5001, "ARG_OF_PERICENTER": 353.8677, "MEAN_ANOMALY": 6.0907, "EPHEMERIS_TYPE": 0, "CLASSIFICATION_TYPE": "U", "NORAD_CAT_ID": 41174, "ELEMENT_SET_NO": 999, "REV_AT_EPOCH": 6152, "BSTAR": 0, "MEAN_MOTION_DOT": 1e-07, "MEAN_MOTION_DDOT": 0}, "tle": {"line1": "1 41174U 15079A   25342.39905686  .00000010  00000+0  00000+0 0  9990", "line2": "2 41174  55.7104 106.5001 0002397 353.8677   6.0907  1.70474355 61526"}}, "geometry": {"type": "Point", "coordinates": [-86.79869670776446, 18.56412198797753]}}]}